#dP2024  5 14  0  0  0.00000000      97 __u+U IGS20 FIT  IAC
## 2314 172800.00000000   900.00000000 60444 0.0000000000000
+  119   C06C07C08C09C10C11C12C13C14C16C19C20C21C22C23C24C25
+        C26C27C28C29C30C32C33C34C35C36C37C38C39C40C41C42C43
+        C44C45C46E02E03E04E05E07E08E09E10E11E12E13E14E15E18
+        E19E21E24E25E26E27E30E31E33E34E36G02G03G04G05G06G07
+        G08G09G10G11G12G13G14G15G16G17G18G19G20G21G22G23G24
+        G25G26G27G28G29G30G31G32J02J03J04R01R02R03R04R05R07
+        R08R09R11R12R13R14R15R16R17R18R19R20R21R22R24R25R26
++         7  7  7  7  7  7  6  7  7  7  5  5  5  5  6  5  6
++         5  6  6  6  6  6  6  6  6  6  6  6  6  6  6  6  6
++         5  6  6  4  4  4  4  4  4  4  4  4  4  4  4  4  5
++         4  4  4  4  4  4  4  4  4  4  5  3  3  3  3  3  3
++         3  3  3  4  3  3  3  3  4  3  3  4  3  3  3  3  3
++         3  4  3  3  3  3  4  3 11 11 11  8  6  6  6  7  7
++         7  6  6  7  7  6  6  6  6  6  7  8  7  7  7  8  8
%c M  cc GPS ccc cccc cccc cccc cccc ccccc ccccc ccccc ccccc
%c cc cc ccc ccc cccc cccc cccc cccc ccccc ccccc ccccc ccccc
%f  1.2500000  1.025000000  0.00000000000  0.000000000000000
%f  0.0000000  0.000000000  0.00000000000  0.000000000000000
%i    0    0    0    0      0      0      0      0         0
%i    0    0    0    0      0      0      0      0         0
/* INFORMATION & ANALYSIS CENTER (IAC)            FINAL DATA
/* S/V CLOCKS ARE ALIGNED TO GNSS TIME                      
/* G:C1WC2W R:C1PC2P E:C1XC5X C:C2IC6I J:C1CC2S             
/* PCV:IGS20_2290 OL/AL:FES2004  NONE     YN ORB:CoN CLK:CoN
*  2024 05 14  2 15  0.00000000
PC06  -4945.624029  39712.293400 -12694.533532    419.644372
PC07  -8497.969326  26412.679478  31830.324494   -732.126587
PC08 -20864.485709  30722.216438 -20173.454994   -112.378087
PC09   -973.622995  41460.596628  -4926.540027   -897.595890
PC10   1605.386887  28574.262655  31386.571539     18.802647
PC11  13724.430303  24110.179792  -3001.044146    561.178022
PC12    758.660532  23734.210147  14690.210207   -245.285726
PC13 -13949.481840  31185.181361 -24733.391782    435.415510
PC14  15931.918406  13297.243358 -18676.737243    877.087565
PC16  -7276.173379  37867.514677 -16349.110365   -519.870517
PC19 -23571.272233  -9005.234636  11904.655528   -912.879407
PC20  -7464.377591 -15247.604107  22151.272978   -461.652335
PC21 -14745.952812  12801.997778 -19905.535149   -967.062007
PC22 -27116.937182   2797.594540  -5877.842801     -5.766394
PC23  20171.609474  -8468.823375  17331.155673   -779.048018
PC24  -2514.566222  23676.038496  14562.444583    923.735171
PC25  12802.744382  10258.600259  22566.111462    399.178744
PC26 -15396.455917  23232.496372  -1729.269728   -290.937312
PC27   6329.615322 -18414.269892 -20017.216765    312.510650
PC28  16456.333082  -2393.533248 -22409.536518    239.540537
PC29 -18680.090280 -17780.792799  10652.726898    281.078381
PC30  -8337.759609 -25558.669135  -7535.481306    -76.709690
PC32  14783.537272 -12906.033584  19866.563188   -622.584242
PC33  23625.765950   8883.587317 -11928.705622   -965.129558
PC34   9511.761925  25526.898131   5988.697908    433.155101
PC35 -16576.263889   2680.927411  22275.813503    363.735892
PC36 -12526.946473 -10592.087075 -22550.806451     80.738601
PC37  15996.462544 -22771.588897   1924.678891   -965.610125
PC38 -24561.030955  31764.593527 -13040.460696    154.955610
PC39  -8315.115759  35479.585744 -20954.107609     -8.338858
PC40 -12513.770131  20122.568106  34854.194405    -70.042483
PC41  27355.458680  -2410.514287   5093.850695   -947.255941
PC42   5645.666152  15458.618197 -22498.513664   -442.942738
PC43  18472.654976  18454.925594  -9831.480367     71.570330
PC44  -5845.175543  18554.314975  19977.708785    472.552177
PC45 -20109.456423   8351.261821 -17463.772448    -85.785285
PC46   1998.615417 -23312.405842 -15183.281834   -148.006315
PE02  27868.437696  -6077.963903   7884.270319    127.198308
PE03  24497.491792   3960.853330  16152.215145   -113.571125
PE04 -10961.585363  12964.212391 -24234.393788   -396.423399
PE05  23337.984213  18173.017970  -1228.251728   4747.472716
PE07  -8146.053728 -21812.100545  18278.502243   -119.985049
PE08  11682.566718 -12231.348200  24298.421891   -270.320068
PE09   8153.751082  21714.805655 -18392.835421   -441.992228
PE10  -6291.465811  28509.922379   4865.513184   -624.609423
PE11    357.788567  29053.335990  -5617.804507   2869.296054
PE12 -11437.678327  23745.941577  13441.017149  -1037.192646
PE13     39.356037 -29179.346115   5011.958940    -21.571212
PE14 -18815.469231 -14788.403119   -329.998029     35.616919
PE15  11630.917264 -23385.445297 -13940.107064   -102.736342
PE18  28189.635825  13766.528808  -7935.005838    108.124737
PE19 -25006.388018  -5907.722265 -14677.835726    -68.199016
PE21 -18499.140518  -8220.745235 -21597.115729   -594.373008
PE24  -2443.287369  18432.559284  23018.428766   -761.048180
PE25  18152.901936   8508.282559  21779.695125      4.475455
PE26 -11780.295276 -17295.693210  20935.532442    453.677939
PE27   2058.689767 -18321.791028 -23156.022045   -348.763872
PE30  21281.834046 -17425.547418 -10938.142823   -297.684339
PE31 -21156.007919  17507.017063  11053.247197    -23.434616
PE33 -16221.758280   3366.935173  24526.845156     11.644050
PE34  16230.279211  -3989.656195 -24438.380654   -111.105229
PE36  11379.544551  17818.665908 -20713.165935   -226.759698
PG02 -14010.444643  10376.544716  20434.302690   -436.631699
PG03 -23070.365847  12810.268215  -2503.672888    362.095625
PG04 -16734.967648   4938.645311 -20046.473926    360.534912
PG05  23516.317016  -3235.465998 -12183.868463   -172.621541
PG06   5793.728651  22909.553550 -11949.879260    274.341127
PG07  -5618.909717  25074.626064  -5134.027012   -128.346480
PG08 -22838.024938  -3212.325454  13429.629593    176.882212
PG09  -4663.706090  14986.623995 -21500.514180    195.475466
PG10  -3256.475488 -14697.182072  22060.576874    -22.755792
PG11  12501.577975  12016.632858 -20110.883689   -661.535258
PG12  24351.966030 -10498.298644  -1091.771124   -505.139276
PG13  21981.005026  12706.707788   7989.428504    650.304168
PG14  -1078.966618  16746.787891  20575.036626    400.149457
PG15  23042.871038    529.703622  12869.331438    158.770490
PG16 -22519.732879  -2360.266252 -14575.095125   -292.268055
PG17   7722.211133  19958.151702  16047.231465    706.485742
PG18   5749.352100 -25354.193934  -4885.671942   -610.215364
PG19  15746.716627  20211.751842   7543.377230    481.721204
PG20  17564.092259   4271.619127 -19350.703840    376.669710
PG21 -15171.437016   3727.263590  21817.256115    121.759509
PG22   6936.053444  13802.490972  22014.128698    -13.274749
PG23   9674.478355 -17851.478785  17040.187386    224.831706
PG24  14650.128398  -8341.654361  20017.434937   -469.371746
PG25  18487.422458 -16652.530867  -9245.589371    495.672674
PG26 -12931.728927 -10460.748968 -20913.497657    153.211304
PG27 -23254.205232 -12774.200313   3426.526861    -23.858290
PG28  -5553.483996 -24193.110475  -9464.667866   -243.013877
PG29   8329.710782 -12530.869435 -21935.866525   -598.521202
PG30   1734.897351  25893.329631   5078.236088   -390.765186
PG31 -11125.766905 -16224.145541 -17871.147988   -227.833234
PG32 -11530.597608 -19579.438987  14127.867280   -618.258604
PJ02 -30499.730088  26540.320444  16971.018307     -0.142966
PJ03 -27074.358188  26064.497508  24184.519151      0.195745
PJ04 -30523.542723  19790.147695 -16178.048012     50.332368
PR01  22264.377885  -1610.199065  12367.690211     85.302232
PR02   8120.596215  -8864.694508  22538.181862    -22.940428
PR03 -10759.505346 -11980.960230  19852.781277    100.114921
PR04 -23149.227286  -8560.336016   6494.537044    236.296425
PR05 -23290.370175   -636.741540 -10389.429217    131.467196
PR07  11525.887388  11914.987137 -19324.228691     82.344379
PR08  23330.758415   8236.556227  -6081.170008    -75.419903
PR09 -14023.922299  20494.516710   5655.150420    186.427524
PR11  10649.525943   4330.158946  22783.660996     24.802990
PR12  18922.594461 -12182.201925  12023.876621     40.111082
PR13  15698.514288 -19861.266760  -3131.823263    -47.342198
PR14   1944.128782 -16329.297165 -19494.147307     26.490260
PR15 -11764.275550  -3097.144081 -22398.162695     79.838880
PR16 -18765.682609  12160.450474 -12227.210132     25.564813
PR17  -7498.669669 -24359.369579    214.834341     86.568111
PR18 -12067.446010 -16188.398090  15629.715363    141.934768
PR19 -11032.582353  -1775.162617  22923.448161   -276.532746
PR20  -2959.986983  18857.894971  16898.647080   -112.763317
PR21   7242.565306  24471.979737    -78.070733   -100.633917
PR22  12043.299745  15431.372944 -16325.623464    112.116665
PR24   2149.329537 -19469.133914 -16321.992664    -55.715848
PR25   6646.688912  24633.428781   -472.512043    -35.688172
PR26  22881.811411   8577.983736  -7338.632026    -19.801118
EOF
